{
    "links": {
        "self": "http://www.neowsapp.com/rest/v1/neo/3753712?api_key=iIulBulltgU6a56xZRHN4H3l9WmuAYTsLGpBGhQ2"
    },
    "id": "3753712",
    "neo_reference_id": "3753712",
    "name": "(2016 LG2)",
    "designation": "2016 LG2",
    "nasa_jpl_url": "http://ssd.jpl.nasa.gov/sbdb.cgi?sstr=3753712",
    "absolute_magnitude_h": 21.5,
    "estimated_diameter": {
        "kilometers": {
            "estimated_diameter_min": 0.1332155667,
            "estimated_diameter_max": 0.2978790628
        },
        "meters": {
            "estimated_diameter_min": 133.2155666981,
            "estimated_diameter_max": 297.8790627982
        },
        "miles": {
            "estimated_diameter_min": 0.0827762899,
            "estimated_diameter_max": 0.1850934111
        },
        "feet": {
            "estimated_diameter_min": 437.0589598459,
            "estimated_diameter_max": 977.2935443908
        }
    },
    "is_potentially_hazardous_asteroid": false,
    "close_approach_data": [
        {
            "close_approach_date": "2016-06-16",
            "close_approach_date_full": "2016-Jun-16 15:02",
            "epoch_date_close_approach": 1466089320000,
            "relative_velocity": {
                "kilometers_per_second": "22.2065465757",
                "kilometers_per_hour": "79943.5676725268",
                "miles_per_hour": "49673.8240351876"
            },
            "miss_distance": {
                "astronomical": "0.0944801626",
                "lunar": "36.7527832514",
                "kilometers": "14134031.082213662",
                "miles": "8782479.6654940556"
            },
            "orbiting_body": "Earth"
        }
    ],
    "orbital_data": {
        "orbit_id": "14",
        "orbit_determination_date": "2018-02-10 07:07:56",
        "first_observation_date": "2016-06-04",
        "last_observation_date": "2016-06-18",
        "data_arc_in_days": 14,
        "observations_used": 127,
        "orbit_uncertainty": "8",
        "minimum_orbit_intersection": ".0930735",
        "jupiter_tisserand_invariant": "2.981",
        "epoch_osculation": "2457548.5",
        "eccentricity": ".7565781356787867",
        "semi_major_axis": "2.504067627498248",
        "inclination": "5.417191862054309",
        "ascending_node_longitude": "164.3521619733421",
        "orbital_period": "1447.329810905291",
        "perihelion_distance": ".6095448102720209",
        "perihelion_argument": "187.3063858964337",
        "aphelion_distance": "4.398590444724475",
        "perihelion_time": "2457601.494414356251",
        "mean_anomaly": "346.8184922161471",
        "mean_motion": ".2487339079783228",
        "equinox": "J2000",
        "orbit_class": {
            "orbit_class_type": "APO",
            "orbit_class_description": "Near-Earth asteroid orbits which cross the Earth’s orbit similar to that of 1862 Apollo",
            "orbit_class_range": "a (semi-major axis) > 1.0 AU; q (perihelion) < 1.017 AU"
        }
    },
    "is_sentry_object": false
}